[{"OBJECT_NAME":"CENTAURI-1","OBJECT_ID":"2018-099BD","EPOCH":"2026-03-02T15:49:04.744416","MEAN_MOTION":15.15134986,"ECCENTRICITY":0.001378,"INCLINATION":97.4375,"RA_OF_ASC_NODE":115.6781,"ARG_OF_PERICENTER":344.275,"MEAN_ANOMALY":15.8053,"EPHEMERIS_TYPE":0,"CLASSIFICATION_TYPE":"U","NORAD_CAT_ID":43809,"ELEMENT_SET_NO":999,"REV_AT_EPOCH":39636,"BSTAR":0.0003608,"MEAN_MOTION_DOT":6.713e-5,"MEAN_MOTION_DDOT":0},{"OBJECT_NAME":"GLOBAL-2","OBJECT_ID":"2018-099BG","EPOCH":"2026-03-02T15:59:01.364928","MEAN_MOTION":15.0797916,"ECCENTRICITY":0.0006679,"INCLINATION":97.37,"RA_OF_ASC_NODE":102.5816,"ARG_OF_PERICENTER":148.9534,"MEAN_ANOMALY":211.2091,"EPHEMERIS_TYPE":0,"CLASSIFICATION_TYPE":"U","NORAD_CAT_ID":43812,"ELEMENT_SET_NO":999,"REV_AT_EPOCH":39585,"BSTAR":0.00030296,"MEAN_MOTION_DOT":4.601e-5,"MEAN_MOTION_DDOT":0},{"OBJECT_NAME":"SEAHAWK-1","OBJECT_ID":"2018-099BQ","EPOCH":"2026-03-02T16:29:14.417952","MEAN_MOTION":15.20845131,"ECCENTRICITY":0.0007506,"INCLINATION":97.4113,"RA_OF_ASC_NODE":115.8636,"ARG_OF_PERICENTER":331.5332,"MEAN_ANOMALY":28.5492,"EPHEMERIS_TYPE":0,"CLASSIFICATION_TYPE":"U","NORAD_CAT_ID":43820,"ELEMENT_SET_NO":999,"REV_AT_EPOCH":39633,"BSTAR":0.00051564,"MEAN_MOTION_DOT":0.0001133,"MEAN_MOTION_DDOT":0},{"OBJECT_NAME":"SAUDISAT 5A","OBJECT_ID":"2018-102A","EPOCH":"2026-03-02T20:13:36.003648","MEAN_MOTION":15.26823005,"ECCENTRICITY":0.0010948,"INCLINATION":97.3207,"RA_OF_ASC_NODE":125.4934,"ARG_OF_PERICENTER":144.2004,"MEAN_ANOMALY":215.9971,"EPHEMERIS_TYPE":0,"CLASSIFICATION_TYPE":"U","NORAD_CAT_ID":43831,"ELEMENT_SET_NO":999,"REV_AT_EPOCH":39944,"BSTAR":0.00030913,"MEAN_MOTION_DOT":8.091e-5,"MEAN_MOTION_DDOT":0},{"OBJECT_NAME":"SAUDISAT 5B","OBJECT_ID":"2018-102C","EPOCH":"2026-03-02T21:09:19.592928","MEAN_MOTION":15.27136158,"ECCENTRICITY":0.0011588,"INCLINATION":97.3304,"RA_OF_ASC_NODE":128.4113,"ARG_OF_PERICENTER":146.5114,"MEAN_ANOMALY":213.686,"EPHEMERIS_TYPE":0,"CLASSIFICATION_TYPE":"U","NORAD_CAT_ID":43833,"ELEMENT_SET_NO":999,"REV_AT_EPOCH":39956,"BSTAR":0.00027987,"MEAN_MOTION_DOT":7.389e-5,"MEAN_MOTION_DDOT":0},{"OBJECT_NAME":"2018-102D","OBJECT_ID":"2018-102D","EPOCH":"2026-03-02T20:47:54.677184","MEAN_MOTION":15.55421716,"ECCENTRICITY":0.0005662,"INCLINATION":97.3503,"RA_OF_ASC_NODE":147.1911,"ARG_OF_PERICENTER":101.305,"MEAN_ANOMALY":258.8841,"EPHEMERIS_TYPE":0,"CLASSIFICATION_TYPE":"U","NORAD_CAT_ID":43834,"ELEMENT_SET_NO":999,"REV_AT_EPOCH":40066,"BSTAR":0.0006779,"MEAN_MOTION_DOT":0.00046277,"MEAN_MOTION_DDOT":0},{"OBJECT_NAME":"ISAT","OBJECT_ID":"2018-111D","EPOCH":"2026-03-02T18:06:03.519360","MEAN_MOTION":15.50095696,"ECCENTRICITY":0.0004537,"INCLINATION":97.591,"RA_OF_ASC_NODE":350.1309,"ARG_OF_PERICENTER":6.2662,"MEAN_ANOMALY":353.8645,"EPHEMERIS_TYPE":0,"CLASSIFICATION_TYPE":"U","NORAD_CAT_ID":43879,"ELEMENT_SET_NO":999,"REV_AT_EPOCH":39460,"BSTAR":0.0010943,"MEAN_MOTION_DOT":0.0006185,"MEAN_MOTION_DDOT":0},{"OBJECT_NAME":"UWE-4","OBJECT_ID":"2018-111E","EPOCH":"2026-03-02T17:18:31.080384","MEAN_MOTION":15.39415358,"ECCENTRICITY":0.0008919,"INCLINATION":97.586,"RA_OF_ASC_NODE":345.759,"ARG_OF_PERICENTER":5.6381,"MEAN_ANOMALY":354.4963,"EPHEMERIS_TYPE":0,"CLASSIFICATION_TYPE":"U","NORAD_CAT_ID":43880,"ELEMENT_SET_NO":999,"REV_AT_EPOCH":39436,"BSTAR":0.00091783,"MEAN_MOTION_DOT":0.00036009,"MEAN_MOTION_DDOT":0},{"OBJECT_NAME":"D-STAR ONE (SPARROW)","OBJECT_ID":"2018-111F","EPOCH":"2026-03-02T18:53:31.848288","MEAN_MOTION":15.53626643,"ECCENTRICITY":0.0005721,"INCLINATION":97.6123,"RA_OF_ASC_NODE":354.4897,"ARG_OF_PERICENTER":47.777,"MEAN_ANOMALY":312.3967,"EPHEMERIS_TYPE":0,"CLASSIFICATION_TYPE":"U","NORAD_CAT_ID":43881,"ELEMENT_SET_NO":999,"REV_AT_EPOCH":39475,"BSTAR":0.0011691,"MEAN_MOTION_DOT":0.00075103,"MEAN_MOTION_DDOT":0},{"OBJECT_NAME":"JILIN-1 09","OBJECT_ID":"2019-005B","EPOCH":"2026-03-02T19:07:35.010336","MEAN_MOTION":15.19403983,"ECCENTRICITY":0.000376,"INCLINATION":97.4719,"RA_OF_ASC_NODE":157.7803,"ARG_OF_PERICENTER":102.5144,"MEAN_ANOMALY":257.6511,"EPHEMERIS_TYPE":0,"CLASSIFICATION_TYPE":"U","NORAD_CAT_ID":43943,"ELEMENT_SET_NO":999,"REV_AT_EPOCH":39298,"BSTAR":0.00034995,"MEAN_MOTION_DOT":7.343e-5,"MEAN_MOTION_DDOT":0},{"OBJECT_NAME":"JILIN-1 10","OBJECT_ID":"2019-005E","EPOCH":"2026-03-02T18:27:56.356128","MEAN_MOTION":15.24320269,"ECCENTRICITY":0.0006954,"INCLINATION":97.4744,"RA_OF_ASC_NODE":160.7201,"ARG_OF_PERICENTER":295.5131,"MEAN_ANOMALY":64.5387,"EPHEMERIS_TYPE":0,"CLASSIFICATION_TYPE":"U","NORAD_CAT_ID":43946,"ELEMENT_SET_NO":999,"REV_AT_EPOCH":39309,"BSTAR":0.0003455,"MEAN_MOTION_DOT":8.383e-5,"MEAN_MOTION_DDOT":0},{"OBJECT_NAME":"EGYPTSAT-A (MISRSAT-A)","OBJECT_ID":"2019-008A","EPOCH":"2026-03-02T20:26:06.480960","MEAN_MOTION":14.72280073,"ECCENTRICITY":0.0001149,"INCLINATION":98.017,"RA_OF_ASC_NODE":128.1648,"ARG_OF_PERICENTER":79.4493,"MEAN_ANOMALY":280.6843,"EPHEMERIS_TYPE":0,"CLASSIFICATION_TYPE":"U","NORAD_CAT_ID":44047,"ELEMENT_SET_NO":999,"REV_AT_EPOCH":37759,"BSTAR":7.5967e-5,"MEAN_MOTION_DOT":4.3e-6,"MEAN_MOTION_DDOT":0},{"OBJECT_NAME":"EMISAT","OBJECT_ID":"2019-018A","EPOCH":"2026-03-02T19:47:36.430944","MEAN_MOTION":14.43620153,"ECCENTRICITY":0.0018708,"INCLINATION":98.4796,"RA_OF_ASC_NODE":121.1479,"ARG_OF_PERICENTER":174.6339,"MEAN_ANOMALY":185.5055,"EPHEMERIS_TYPE":0,"CLASSIFICATION_TYPE":"U","NORAD_CAT_ID":44078,"ELEMENT_SET_NO":999,"REV_AT_EPOCH":36471,"BSTAR":6.1698e-5,"MEAN_MOTION_DOT":1.65e-6,"MEAN_MOTION_DDOT":0},{"OBJECT_NAME":"JILIN-1 GAOFEN 3A","OBJECT_ID":"2019-032C","EPOCH":"2026-03-02T19:48:23.468832","MEAN_MOTION":15.30011976,"ECCENTRICITY":0.0002419,"INCLINATION":44.975,"RA_OF_ASC_NODE":221.2276,"ARG_OF_PERICENTER":63.9648,"MEAN_ANOMALY":296.1484,"EPHEMERIS_TYPE":0,"CLASSIFICATION_TYPE":"U","NORAD_CAT_ID":44312,"ELEMENT_SET_NO":999,"REV_AT_EPOCH":37153,"BSTAR":0.00058327,"MEAN_MOTION_DOT":0.00017008,"MEAN_MOTION_DDOT":0},{"OBJECT_NAME":"WT 1A","OBJECT_ID":"2019-032F","EPOCH":"2026-03-02T13:53:56.304960","MEAN_MOTION":15.72874808,"ECCENTRICITY":0.0008488,"INCLINATION":44.9754,"RA_OF_ASC_NODE":119.7913,"ARG_OF_PERICENTER":28.0258,"MEAN_ANOMALY":332.1098,"EPHEMERIS_TYPE":0,"CLASSIFICATION_TYPE":"U","NORAD_CAT_ID":44315,"ELEMENT_SET_NO":999,"REV_AT_EPOCH":37273,"BSTAR":0.0010669,"MEAN_MOTION_DOT":0.00151422,"MEAN_MOTION_DDOT":0},{"OBJECT_NAME":"WT 1B","OBJECT_ID":"2019-032G","EPOCH":"2026-03-02T19:54:19.749600","MEAN_MOTION":15.24770169,"ECCENTRICITY":0.0008851,"INCLINATION":44.9752,"RA_OF_ASC_NODE":280.5038,"ARG_OF_PERICENTER":7.9944,"MEAN_ANOMALY":352.1077,"EPHEMERIS_TYPE":0,"CLASSIFICATION_TYPE":"U","NORAD_CAT_ID":44316,"ELEMENT_SET_NO":999,"REV_AT_EPOCH":37083,"BSTAR":0.0005012,"MEAN_MOTION_DOT":0.00012395,"MEAN_MOTION_DDOT":0},{"OBJECT_NAME":"PROX-1","OBJECT_ID":"2019-036A","EPOCH":"2026-03-02T12:35:29.325408","MEAN_MOTION":14.87791906,"ECCENTRICITY":0.0006194,"INCLINATION":23.9956,"RA_OF_ASC_NODE":105.2744,"ARG_OF_PERICENTER":234.6642,"MEAN_ANOMALY":125.3278,"EPHEMERIS_TYPE":0,"CLASSIFICATION_TYPE":"U","NORAD_CAT_ID":44339,"ELEMENT_SET_NO":999,"REV_AT_EPOCH":35755,"BSTAR":0.0020156,"MEAN_MOTION_DOT":0.0001916,"MEAN_MOTION_DDOT":0}]
