CENTAURI-1              
1 43809U 18099BD  26061.65908269  .00006713  00000+0  36080-3 0  9997
2 43809  97.4375 115.6781 0013780 344.2750  15.8053 15.15134986396366
GLOBAL-2                
1 43812U 18099BG  26061.66598802  .00004601  00000+0  30296-3 0  9997
2 43812  97.3700 102.5816 0006679 148.9534 211.2091 15.07979160395852
SEAHAWK-1               
1 43820U 18099BQ  26061.68697243  .00011330  00000+0  51564-3 0  9995
2 43820  97.4113 115.8636 0007506 331.5332  28.5492 15.20845131396336
SAUDISAT 5A             
1 43831U 18102A   26061.84277782  .00008091  00000+0  30913-3 0  9997
2 43831  97.3207 125.4934 0010948 144.2004 215.9971 15.26823005399449
SAUDISAT 5B             
1 43833U 18102C   26061.88147677  .00007389  00000+0  27987-3 0  9998
2 43833  97.3304 128.4113 0011588 146.5114 213.6860 15.27136158399561
2018-102D               
1 43834U 18102D   26061.86660506  .00046277  00000+0  67790-3 0  9993
2 43834  97.3503 147.1911 0005662 101.3050 258.8841 15.55421716400663
ISAT                    
1 43879U 18111D   26061.75420740  .00061850  00000+0  10943-2 0  9995
2 43879  97.5910 350.1309 0004537   6.2662 353.8645 15.50095696394608
UWE-4                   
1 43880U 18111E   26061.72119306  .00036009  00000+0  91783-3 0  9997
2 43880  97.5860 345.7590 0008919   5.6381 354.4963 15.39415358394366
D-STAR ONE (SPARROW)    
1 43881U 18111F   26061.78717417  .00075103  00000+0  11691-2 0  9998
2 43881  97.6123 354.4897 0005721  47.7770 312.3967 15.53626643394751
JILIN-1 09              
1 43943U 19005B   26061.79693299  .00007343  00000+0  34995-3 0  9996
2 43943  97.4719 157.7803 0003760 102.5144 257.6511 15.19403983392987
JILIN-1 10              
1 43946U 19005E   26061.76940227  .00008383  00000+0  34550-3 0  9994
2 43946  97.4744 160.7201 0006954 295.5131  64.5387 15.24320269393091
EGYPTSAT-A (MISRSAT-A)  
1 44047U 19008A   26061.85146390  .00000430  00000+0  75967-4 0  9992
2 44047  98.0170 128.1648 0001149  79.4493 280.6843 14.72280073377593
EMISAT                  
1 44078U 19018A   26061.82472721  .00000165  00000+0  61698-4 0  9995
2 44078  98.4796 121.1479 0018708 174.6339 185.5055 14.43620153364719
JILIN-1 GAOFEN 3A       
1 44312U 19032C   26061.82527163  .00017008  00000+0  58327-3 0  9991
2 44312  44.9750 221.2276 0002419  63.9648 296.1484 15.30011976371535
WT 1A                   
1 44315U 19032F   26061.57912390  .00151422  00000+0  10669-2 0  9991
2 44315  44.9754 119.7913 0008488  28.0258 332.1098 15.72874808372734
WT 1B                   
1 44316U 19032G   26061.82939525  .00012395  00000+0  50120-3 0  9991
2 44316  44.9752 280.5038 0008851   7.9944 352.1077 15.24770169370830
PROX-1                  
1 44339U 19036A   26061.52464497  .00019160  00000+0  20156-2 0  9990
2 44339  23.9956 105.2744 0006194 234.6642 125.3278 14.87791906357554
